API VERSION: 1.2
API SOURCE: NASA/JPL Horizons API



*******************************************************************************
Ephemeris / API_USER Fri Apr  3 11:25:59 2026 Pasadena, USA      / Horizons
*******************************************************************************
Target body name: Jupiter (599)                   {source: jup365_merged}
Center body name: Earth (399)                     {source: DE441}
Center-site name: BODY CENTER
*******************************************************************************
Start time      : A.D. 2025-Sep-20 13:18:59.9999 TDB
Stop  time      : A.D. 2025-Sep-22 13:18:59.9999 TDB
Step-size       : 60 minutes
*******************************************************************************
Center geodetic : 0.0, 0.0, 0.0                   {E-lon(deg),Lat(deg),Alt(km)}
Center cylindric: 0.0, 0.0, 0.0                   {E-lon(deg),Dxy(km),Dz(km)}
Center radii    : 6378.137, 6378.137, 6356.752 km {Equator_a, b, pole_c}
Output units    : AU-D
Calendar mode   : Mixed Julian/Gregorian
Output type     : GEOMETRIC cartesian states
Output format   : 3 (position, velocity, LT, range, range-rate)
EOP file        : eop.260402.p260629
EOP coverage    : DATA-BASED 1962-JAN-20 TO 2026-APR-02. PREDICTS-> 2026-JUN-28
Reference frame : Ecliptic of J2000.0
*******************************************************************************
            JDTDB,            Calendar Date (TDB),                      X,                      Y,                      Z,                     VX,                     VY,                     VZ,                     LT,                     RG,                     RR,
**************************************************************************************************************************************************************************************************************************************************************************
$$SOE
2460940.304861110, A.D. 2025-Sep-21 19:18:59.9999, -1.950332172793176E+00,  5.110361156796515E+00,  5.029422743761995E-05, -7.623505496483186E-03, -1.817026973941821E-02,  1.727453296056592E-04,  3.159139196012520E-02,  5.469879956603826E+00, -1.425776517514475E-02,
2460940.346527777, A.D. 2025-Sep-21 20:18:59.9999, -1.950649561043480E+00,  5.109604045652998E+00,  5.749191658401113E-05, -7.611128802348351E-03, -1.817106381624543E-02,  1.727437722967209E-04,  3.158796042658409E-02,  5.469285804989343E+00, -1.426151219404811E-02,
2460940.388194443, A.D. 2025-Sep-21 21:18:59.9999, -1.950966433382673E+00,  5.108846901600149E+00,  6.468954409728645E-05, -7.598741745821314E-03, -1.817184913347351E-02,  1.727423805721821E-04,  3.158452799148127E-02,  5.468691497274287E+00, -1.426525777219424E-02,
2460940.429861110, A.D. 2025-Sep-21 22:18:59.9999, -1.951282789378513E+00,  5.108089725034633E+00,  7.188711802339063E-05, -7.586344345282535E-03, -1.817262417439657E-02,  1.727412088197687E-04,  3.158109465533299E-02,  5.468097033548045E+00, -1.426900048962876E-02,
2460940.471527777, A.D. 2025-Sep-21 23:18:59.9999, -1.951598628604813E+00,  5.107332516415123E+00,  7.908464856538163E-05, -7.573936876553933E-03, -1.817338749803372E-02,  1.727403055030468E-04,  3.157766041900167E-02,  5.467502413959943E+00, -1.427273890549085E-02,
2460940.513194443, A.D. 2025-Sep-22 00:18:59.9999, -1.951913950652019E+00,  5.106575276256745E+00,  8.628214776070033E-05, -7.561519803889357E-03, -1.817413780460823E-02,  1.727397116931572E-04,  3.157422528368770E-02,  5.466907638717818E+00, -1.427647164364825E-02,
2460940.554861110, A.D. 2025-Sep-22 01:18:59.9999, -1.952228755132102E+00,  5.105818005135093E+00,  9.347962950188911E-05, -7.549093852720055E-03, -1.817487349814165E-02,  1.727394736856452E-04,  3.157078925096116E-02,  5.466312708093525E+00, -1.428019695803243E-02,
2460940.596527777, A.D. 2025-Sep-22 02:18:59.9999, -1.952543041696009E+00,  5.105060703684133E+00,  1.006771092453376E-04, -7.536659965240510E-03, -1.817559343250856E-02,  1.727396203432145E-04,  3.156735232278655E-02,  5.465717622427206E+00, -1.428391344521820E-02,
2460940.638194443, A.D. 2025-Sep-22 03:18:59.9999, -1.952856810032587E+00,  5.104303372582308E+00,  1.078746035351561E-04, -7.524219128963180E-03, -1.817629657718176E-02,  1.727401750702306E-04,  3.156391450144565E-02,  5.465122382113937E+00, -1.428761979330294E-02,
2460940.679861110, A.D. 2025-Sep-22 04:18:59.9999, -1.953170059877188E+00,  5.103546012548366E+00,  1.150721297190931E-04, -7.511772568453018E-03, -1.817698204043452E-02,  1.727411531178466E-04,  3.156047578953281E-02,  5.464526987602914E+00, -1.429131473497925E-02,
2460940.721527777, A.D. 2025-Sep-22 05:18:59.9999, -1.953482791019404E+00,  5.102788624334329E+00,  1.222697056011021E-04, -7.499321650740238E-03, -1.817764912301006E-02,  1.727425609192998E-04,  3.155703618993311E-02,  5.463931439393678E+00, -1.429499713131130E-02,
2460940.763194443, A.D. 2025-Sep-22 06:18:59.9999, -1.953795003307688E+00,  5.102031208716856E+00,  1.294673490668155E-04, -7.486867825908568E-03, -1.817829734392287E-02,  1.727443959517898E-04,  3.155359570578548E-02,  5.463335738029712E+00, -1.429866601695568E-02,
2460940.804861110, A.D. 2025-Sep-22 07:18:59.9999, -1.954106696651902E+00,  5.101273766487916E+00,  1.366650777118067E-04, -7.474412585692422E-03, -1.817892645063625E-02,  1.727466469269712E-04,  3.155015434043767E-02,  5.462739884090671E+00, -1.430232062438293E-02,
2460940.846527777, A.D. 2025-Sep-22 08:18:59.9999, -1.954417871024347E+00,  5.100516298445200E+00,  1.438629084849933E-04, -7.461957430061128E-03, -1.817953642036090E-02,  1.727492942044486E-04,  3.154671209739703E-02,  5.462143878183822E+00, -1.430596039697526E-02,
2460940.888194443, A.D. 2025-Sep-22 09:18:59.9999, -1.954728526459461E+00,  5.099758805382629E+00,  1.510608573555476E-04, -7.449503836591227E-03, -1.818012745581019E-02,  1.727523103755580E-04,  3.154326898027863E-02,  5.461547720935104E+00, -1.430958499597242E-02,
2460940.929861110, A.D. 2025-Sep-22 10:18:59.9999, -1.955038663052260E+00,  5.099001288081121E+00,  1.582589389981347E-04, -7.437053230516298E-03, -1.818069997680254E-02,  1.727556609914897E-04,  3.153982499275261E-02,  5.460951412979975E+00, -1.431319430331919E-02,
2460940.971527777, A.D. 2025-Sep-22 11:18:59.9999, -1.955348280955538E+00,  5.098243747299784E+00,  1.654571665211820E-04, -7.424606955172551E-03, -1.818125460813452E-02,  1.727593054198601E-04,  3.153638013849098E-02,  5.460354954954228E+00, -1.431678842091140E-02,
2460941.013194443, A.D. 2025-Sep-22 12:18:59.9999, -1.955657380375860E+00,  5.097486183767685E+00,  1.726555512282178E-04, -7.412166243504706E-03, -1.818179216379735E-02,  1.727631978148659E-04,  3.153293442111514E-02,  5.459758347484892E+00, -1.432036766607114E-02,
2460941.054861110, A.D. 2025-Sep-22 13:18:59.9999, -1.955965961568402E+00,  5.096728598176367E+00,  1.798541024230381E-04, -7.399732191654886E-03, -1.818231362760778E-02,  1.727672881825654E-04,  3.152948784414510E-02,  5.459161591181427E+00, -1.432393256295118E-02,
